{
  "type": "FeatureCollection",
  "features": [
    {
      "type": "Feature",
      "properties": {
        "owner": "Jules Verne",
        "address": "123 Imagination St, Fictional City"
      },
      "geometry": {
        "type": "Polygon",
        "coordinates": [
          [
            [-87.623177, 41.881832],
            [-87.623000, 41.881832],
            [-87.623000, 41.882000],
            [-87.623177, 41.882000],
            [-87.623177, 41.881832]
          ]
        ]
      }
    },
    {
      "type": "Feature",
      "properties": {
        "owner": "H.G. Wells",
        "address": "456 Future Ave, Sci-Fi Town"
      },
      "geometry": {
        "type": "Polygon",
        "coordinates": [
          [
            [-87.624000, 41.881000],
            [-87.623800, 41.881000],
            [-87.623800, 41.881200],
            [-87.624000, 41.881200],
            [-87.624000, 41.881000]
          ]
        ]
      }
    }
  ]
}
